{"type": "FeatureCollection", "features": [ {"type": "Feature", "properties": {"norad_id": 34432, "name": "COSMOS 2251 DEB", "group": "cosmos-2251-debris", "lat": 62.01540522268657, "lon": 145.63503318920368, "alt_km": 959.9706865686285, "timestamp": "2025-12-06T22:38:43.123361+00:00", "meta": {"OBJECT_NAME": "COSMOS 2251 DEB", "OBJECT_ID": "1993-036RZ", "EPOCH": "2025-12-06T08:46:21.025632", "MEAN_MOTION": 14.0286413, "ECCENTRICITY": 0.01829638, "INCLINATION": 73.8287, "RA_OF_ASC_NODE": 113.5547, "ARG_OF_PERICENTER": 197.2086, "MEAN_ANOMALY": 193.191, "EPHEMERIS_TYPE": 0, "CLASSIFICATION_TYPE": "U", "NORAD_CAT_ID": 34432, "ELEMENT_SET_NO": 999, "REV_AT_EPOCH": 85595, "BSTAR": 0.0022305439, "MEAN_MOTION_DOT": 3.98e-05, "MEAN_MOTION_DDOT": 0}, "tle": {"line1": "1 34432U 93036RZ  25340.36552113  .00003980  00000+0  22305-2 0  9990", "line2": "2 34432  73.8287 113.5547 0182963 197.2086 193.1910 14.02864130855956"}}, "geometry": {"type": "Point", "coordinates": [145.63503318920368, 62.01540522268657]}}, {"type": "Feature", "properties": {"norad_id": 34433, "name": "COSMOS 2251 DEB", "group": "cosmos-2251-debris", "lat": -59.810953589418915, "lon": 14.730786345787052, "alt_km": 801.2574320344129, "timestamp": "2025-12-06T22:38:43.123371+00:00", "meta": {"OBJECT_NAME": "COSMOS 2251 DEB", "OBJECT_ID": "1993-036SA", "EPOCH": "2025-12-05T23:23:16.964160", "MEAN_MOTION": 14.1280661, "ECCENTRICITY": 0.01517938, "INCLINATION": 74.0117, "RA_OF_ASC_NODE": 166.9196, "ARG_OF_PERICENTER": 306.4385, "MEAN_ANOMALY": 52.284, "EPHEMERIS_TYPE": 0, "CLASSIFICATION_TYPE": "U", "NORAD_CAT_ID": 34433, "ELEMENT_SET_NO": 999, "REV_AT_EPOCH": 85854, "BSTAR": 0.0020892671, "MEAN_MOTION_DOT": 4.307e-05, "MEAN_MOTION_DDOT": 0}, "tle": {"line1": "1 34433U 93036SA  25339.97450190  .00004307  00000+0  20893-2 0  9992", "line2": "2 34433  74.0117 166.9196 0151793 306.4385  52.2840 14.12806610858542"}}, "geometry": {"type": "Point", "coordinates": [14.730786345787052, -59.810953589418915]}}, {"type": "Feature", "properties": {"norad_id": 34434, "name": "COSMOS 2251 DEB", "group": "cosmos-2251-debris", "lat": -71.16880284960534, "lon": -103.10583479169912, "alt_km": 970.2351225203356, "timestamp": "2025-12-06T22:38:43.123381+00:00", "meta": {"OBJECT_NAME": "COSMOS 2251 DEB", "OBJECT_ID": "1993-036SB", "EPOCH": "2025-12-06T11:41:40.452864", "MEAN_MOTION": 13.89745492, "ECCENTRICITY": 0.02757193, "INCLINATION": 74.063, "RA_OF_ASC_NODE": 20.7572, "ARG_OF_PERICENTER": 159.5034, "MEAN_ANOMALY": 335.2797, "EPHEMERIS_TYPE": 0, "CLASSIFICATION_TYPE": "U", "NORAD_CAT_ID": 34434, "ELEMENT_SET_NO": 999, "REV_AT_EPOCH": 83879, "BSTAR": 0.0042403861, "MEAN_MOTION_DOT": 7.051e-05, "MEAN_MOTION_DDOT": 0}, "tle": {"line1": "1 34434U 93036SB  25340.48727376  .00007051  00000+0  42404-2 0  9995", "line2": "2 34434  74.0630  20.7572 0275719 159.5034 335.2797 13.89745492838794"}}, "geometry": {"type": "Point", "coordinates": [-103.10583479169912, -71.16880284960534]}}, {"type": "Feature", "properties": {"norad_id": 34446, "name": "COSMOS 2251 DEB", "group": "cosmos-2251-debris", "lat": -70.20873374277585, "lon": 15.481852618071983, "alt_km": 724.7160956099342, "timestamp": "2025-12-06T22:38:43.123391+00:00", "meta": {"OBJECT_NAME": "COSMOS 2251 DEB", "OBJECT_ID": "1993-036SP", "EPOCH": "2025-12-06T13:04:01.492608", "MEAN_MOTION": 14.49341664, "ECCENTRICITY": 0.00514411, "INCLINATION": 74.0423, "RA_OF_ASC_NODE": 68.8991, "ARG_OF_PERICENTER": 208.3307, "MEAN_ANOMALY": 151.5054, "EPHEMERIS_TYPE": 0, "CLASSIFICATION_TYPE": "U", "NORAD_CAT_ID": 34446, "ELEMENT_SET_NO": 999, "REV_AT_EPOCH": 88604, "BSTAR": 0.00030711919, "MEAN_MOTION_DOT": 1.164e-05, "MEAN_MOTION_DDOT": 0}, "tle": {"line1": "1 34446U 93036SP  25340.54446172  .00001164  00000+0  30712-3 0  9996", "line2": "2 34446  74.0423  68.8991 0051441 208.3307 151.5054 14.49341664886041"}}, "geometry": {"type": "Point", "coordinates": [15.481852618071983, -70.20873374277585]}}, {"type": "Feature", "properties": {"norad_id": 34449, "name": "COSMOS 2251 DEB", "group": "cosmos-2251-debris", "lat": -24.324017724280147, "lon": -90.32139188176502, "alt_km": 585.6948186538348, "timestamp": "2025-12-06T22:38:43.123401+00:00", "meta": {"OBJECT_NAME": "COSMOS 2251 DEB", "OBJECT_ID": "1993-036SS", "EPOCH": "2025-12-06T09:15:57.191904", "MEAN_MOTION": 14.94276409, "ECCENTRICITY": 0.00239577, "INCLINATION": 74.0327, "RA_OF_ASC_NODE": 83.365, "ARG_OF_PERICENTER": 130.0383, "MEAN_ANOMALY": 317.2692, "EPHEMERIS_TYPE": 0, "CLASSIFICATION_TYPE": "U", "NORAD_CAT_ID": 34449, "ELEMENT_SET_NO": 999, "REV_AT_EPOCH": 88598, "BSTAR": 0.0058557369, "MEAN_MOTION_DOT": 0.00063771, "MEAN_MOTION_DDOT": 0}, "tle": {"line1": "1 34449U 93036SS  25340.38607861  .00063771  00000+0  58557-2 0  9993", "line2": "2 34449  74.0327  83.3650 0023957 130.0383 317.2692 14.94276409885982"}}, "geometry": {"type": "Point", "coordinates": [-90.32139188176502, -24.324017724280147]}}, {"type": "Feature", "properties": {"norad_id": 34451, "name": "COSMOS 2251 DEB", "group": "cosmos-2251-debris", "lat": 17.404094096453424, "lon": -85.58748340235162, "alt_km": 568.6617809273166, "timestamp": "2025-12-06T22:38:43.123411+00:00", "meta": {"OBJECT_NAME": "COSMOS 2251 DEB", "OBJECT_ID": "1993-036SU", "EPOCH": "2025-12-06T13:53:45.402144", "MEAN_MOTION": 14.94992412, "ECCENTRICITY": 0.00251785, "INCLINATION": 74.0469, "RA_OF_ASC_NODE": 100.2913, "ARG_OF_PERICENTER": 124.3045, "MEAN_ANOMALY": 236.0528, "EPHEMERIS_TYPE": 0, "CLASSIFICATION_TYPE": "U", "NORAD_CAT_ID": 34451, "ELEMENT_SET_NO": 999, "REV_AT_EPOCH": 88543, "BSTAR": 0.0051411356, "MEAN_MOTION_DOT": 0.00056993, "MEAN_MOTION_DDOT": 0}, "tle": {"line1": "1 34451U 93036SU  25340.57899771  .00056993  00000+0  51411-2 0  9990", "line2": "2 34451  74.0469 100.2913 0025178 124.3045 236.0528 14.94992412885436"}}, "geometry": {"type": "Point", "coordinates": [-85.58748340235162, 17.404094096453424]}}, {"type": "Feature", "properties": {"norad_id": 34452, "name": "COSMOS 2251 DEB", "group": "cosmos-2251-debris", "lat": -73.8216919053659, "lon": 114.14713985189304, "alt_km": 492.3590363221965, "timestamp": "2025-12-06T22:38:43.123422+00:00", "meta": {"OBJECT_NAME": "COSMOS 2251 DEB", "OBJECT_ID": "1993-036SV", "EPOCH": "2025-12-06T08:58:53.077152", "MEAN_MOTION": 15.11435338, "ECCENTRICITY": 0.00670686, "INCLINATION": 74.0354, "RA_OF_ASC_NODE": 195.9903, "ARG_OF_PERICENTER": 273.6477, "MEAN_ANOMALY": 142.4359, "EPHEMERIS_TYPE": 0, "CLASSIFICATION_TYPE": "U", "NORAD_CAT_ID": 34452, "ELEMENT_SET_NO": 999, "REV_AT_EPOCH": 90566, "BSTAR": 0.0013026368, "MEAN_MOTION_DOT": 0.00023281, "MEAN_MOTION_DDOT": 0}, "tle": {"line1": "1 34452U 93036SV  25340.37422543  .00023281  00000+0  13026-2 0  9992", "line2": "2 34452  74.0354 195.9903 0067068 273.6477 142.4359 15.11435338905660"}}, "geometry": {"type": "Point", "coordinates": [114.14713985189304, -73.8216919053659]}}, {"type": "Feature", "properties": {"norad_id": 34453, "name": "COSMOS 2251 DEB", "group": "cosmos-2251-debris", "lat": -73.90546572993954, "lon": 13.142048612716279, "alt_km": 372.38838669774304, "timestamp": "2025-12-06T22:38:43.123432+00:00", "meta": {"OBJECT_NAME": "COSMOS 2251 DEB", "OBJECT_ID": "1993-036SW", "EPOCH": "2025-12-06T15:22:21.753984", "MEAN_MOTION": 15.6562036, "ECCENTRICITY": 0.00197223, "INCLINATION": 74.1124, "RA_OF_ASC_NODE": 113.0071, "ARG_OF_PERICENTER": 343.737, "MEAN_ANOMALY": 16.3216, "EPHEMERIS_TYPE": 0, "CLASSIFICATION_TYPE": "U", "NORAD_CAT_ID": 34453, "ELEMENT_SET_NO": 999, "REV_AT_EPOCH": 88771, "BSTAR": 0.013848587, "MEAN_MOTION_DOT": 0.01577439, "MEAN_MOTION_DDOT": 0}, "tle": {"line1": "1 34453U 93036SW  25340.64052956  .01577439  00000+0  13849-1 0  9992", "line2": "2 34453  74.1124 113.0071 0019722 343.7370  16.3216 15.65620360887715"}}, "geometry": {"type": "Point", "coordinates": [13.142048612716279, -73.90546572993954]}}, {"type": "Feature", "properties": {"norad_id": 34454, "name": "COSMOS 2251 DEB", "group": "cosmos-2251-debris", "lat": 22.61561698777499, "lon": -64.84923508482413, "alt_km": 740.2756869735258, "timestamp": "2025-12-06T22:38:43.123442+00:00", "meta": {"OBJECT_NAME": "COSMOS 2251 DEB", "OBJECT_ID": "1993-036SX", "EPOCH": "2025-12-05T23:10:28.250400", "MEAN_MOTION": 14.38789929, "ECCENTRICITY": 0.00353158, "INCLINATION": 74.0586, "RA_OF_ASC_NODE": 290.1127, "ARG_OF_PERICENTER": 354.0877, "MEAN_ANOMALY": 5.9855, "EPHEMERIS_TYPE": 0, "CLASSIFICATION_TYPE": "U", "NORAD_CAT_ID": 34454, "ELEMENT_SET_NO": 999, "REV_AT_EPOCH": 87970, "BSTAR": 0.00048796285, "MEAN_MOTION_DOT": 1.485e-05, "MEAN_MOTION_DDOT": 0}, "tle": {"line1": "1 34454U 93036SX  25339.96560475  .00001485  00000+0  48796-3 0  9999", "line2": "2 34454  74.0586 290.1127 0035315 354.0877   5.9855 14.38789929879708"}}, "geometry": {"type": "Point", "coordinates": [-64.84923508482413, 22.61561698777499]}}, {"type": "Feature", "properties": {"norad_id": 34459, "name": "COSMOS 2251 DEB", "group": "cosmos-2251-debris", "lat": 70.0800434276274, "lon": 32.10148642037334, "alt_km": 967.1557606620745, "timestamp": "2025-12-06T22:38:43.123453+00:00", "meta": {"OBJECT_NAME": "COSMOS 2251 DEB", "OBJECT_ID": "1993-036TC", "EPOCH": "2025-12-06T11:52:39.732384", "MEAN_MOTION": 14.00482343, "ECCENTRICITY": 0.01919545, "INCLINATION": 74.0791, "RA_OF_ASC_NODE": 264.8417, "ARG_OF_PERICENTER": 336.0282, "MEAN_ANOMALY": 23.2, "EPHEMERIS_TYPE": 0, "CLASSIFICATION_TYPE": "U", "NORAD_CAT_ID": 34459, "ELEMENT_SET_NO": 999, "REV_AT_EPOCH": 85624, "BSTAR": 0.0010852431, "MEAN_MOTION_DOT": 1.865e-05, "MEAN_MOTION_DDOT": 0}, "tle": {"line1": "1 34459U 93036TC  25340.49490431  .00001865  00000+0  10852-2 0  9991", "line2": "2 34459  74.0791 264.8417 0191954 336.0282  23.2000 14.00482343856241"}}, "geometry": {"type": "Point", "coordinates": [32.10148642037334, 70.0800434276274]}}]}